NORAD_CAT_ID,OBJECT_NAME,OBJECT_TYPE,EPOCH,MEAN_MOTION,ECCENTRICITY,INCLINATION,RA_OF_ASC_NODE,ARG_OF_PERICENTER,MEAN_ANOMALY,BSTAR,MEAN_MOTION_DOT,MEAN_MOTION_DDOT,TLE_LINE0,TLE_LINE1,TLE_LINE2,SEMIMAJOR_AXIS,PERIOD,APOGEE,PERIGEE,DECAYED
51721.0,STARLINK-3524,PAYLOAD,2023-05-10 20:30:20,15.08853265,0.0001151,53.2177,290.1962,89.7681,270.3443,0.00025205,3.727e-05,0.0,0 STARLINK-3524,1 51721U 22016H   23130.85440200  .00003727  00000-0  25205-3 0  9995,2 51721  53.2177 290.1962 0001151  89.7681 270.3443 15.08853265 67356,6917.84,95.437,540.501,538.909,0.0
51721.0,STARLINK-3524,PAYLOAD,2023-05-11 10:48:49,15.08836881,0.0001324,53.2168,287.5169,69.4348,290.6786,7.5336e-05,9.11e-06,0.0,0 STARLINK-3524,1 51721U 22016H   23131.45057058  .00000911  00000-0  75336-4 0  9990,2 51721  53.2168 287.5169 0001324  69.4348 290.6786 15.08836881 67442,6917.89,95.438,540.671,538.839,0.0
51721.0,STARLINK-3524,PAYLOAD,2023-05-11 17:10:21,15.08843027,0.0001123,53.217,286.3284,81.9631,278.1488,0.00017448,2.49e-05,0.0,0 STARLINK-3524,1 51721U 22016H   23131.71552776  .00002490  00000-0  17448-3 0  9999,2 51721  53.2170 286.3284 0001123  81.9631 278.1488 15.08843027 67485,6917.871,95.437,540.513,538.959,0.0
51721.0,STARLINK-3524,PAYLOAD,2023-05-12 02:42:40,15.08838436,0.0001112,53.2162,284.5455,80.028,280.0838,5.6627e-05,6.13e-06,0.0,0 STARLINK-3524,1 51721U 22016H   23132.11296974  .00000613  00000-0  56627-4 0  9997,2 51721  53.2162 284.5455 0001112  80.0280 280.0838 15.08838436 67540,6917.885,95.438,540.519,538.981,0.0
51721.0,STARLINK-3524,PAYLOAD,2023-05-12 17:01:08,15.08839969,0.0001031,53.2161,281.8699,81.3188,278.7921,0.00013988,1.939e-05,0.0,0 STARLINK-3524,1 51721U 22016H   23132.70913090  .00001939  00000-0  13988-3 0  9991,2 51721  53.2161 281.8699 0001031  81.3188 278.7921 15.08839969 68753,6917.88,95.438,540.459,539.032,0.0
51721.0,STARLINK-3524,PAYLOAD,2023-05-13 13:41:09,15.08838854,0.0001158,53.216,278.0042,88.227,271.8855,6.3525e-05,7.23e-06,0.0,0 STARLINK-3524,1 51721U 22016H   23133.57025043  .00000723  00000-0  63525-4 0  9992,2 51721  53.2160 278.0042 0001158  88.2270 271.8855 15.08838854 67762,6917.884,95.438,540.55,538.948,0.0
51721.0,STARLINK-3524,PAYLOAD,2023-05-13 18:27:18,15.08843954,0.0001168,53.2165,277.1131,98.7663,261.3461,0.00011849,1.599e-05,0.0,0 STARLINK-3524,1 51721U 22016H   23133.76896673  .00001599  00000-0  11849-3 0  9991,2 51721  53.2165 277.1131 0001168  98.7663 261.3461 15.08843954 67796,6917.868,95.437,540.541,538.925,0.0
51721.0,STARLINK-3524,PAYLOAD,2023-05-14 02:24:14,15.08839257,0.0001059,53.2163,275.6275,96.3209,263.7904,4.1398e-05,3.71e-06,0.0,0 STARLINK-3524,1 51721U 22016H   23134.10017000  .00000371  00000-0  41398-4 0  9999,2 51721  53.2163 275.6275 0001059  96.3209 263.7904 15.08839257 68964,6917.883,95.438,540.48,539.015,0.0
51721.0,STARLINK-3524,PAYLOAD,2023-05-14 13:31:57,15.088327,0.0001197,53.2157,273.5432,94.1572,265.9557,-1.3685e-05,-5.06e-06,0.0,0 STARLINK-3524,1 51721U 22016H   23134.56385495 -.00000506  00000-0 -13685-4 0  9995,2 51721  53.2157 273.5432 0001197  94.1572 265.9557 15.08832700 67919,6917.903,95.438,540.596,538.94,0.0
51721.0,STARLINK-3524,PAYLOAD,2023-05-14 16:42:43,15.08836953,0.0001297,53.2165,272.9479,82.9898,277.1242,-3.7169e-05,-8.79e-06,0.0,0 STARLINK-3524,1 51721U 22016H   23134.69633373 -.00000879  00000-0 -37169-4 0  9996,2 51721  53.2165 272.9479 0001297  82.9898 277.1242 15.08836953 67931,6917.89,95.438,540.652,538.857,0.0
51721.0,STARLINK-3524,PAYLOAD,2023-05-15 02:15:02,15.08839419,0.00013,53.2182,271.1655,91.3103,268.8039,3.2647e-05,2.32e-06,0.0,0 STARLINK-3524,1 51721U 22016H   23135.09377610  .00000232  00000-0  32647-4 0  9997,2 51721  53.2182 271.1655 0001300  91.3103 268.8039 15.08839419 67992,6917.882,95.438,540.646,538.848,0.0
51721.0,STARLINK-3524,PAYLOAD,2023-05-15 14:58:07,15.08839004,0.0001102,53.2166,268.7878,92.6788,267.433,8.0808e-05,9.98e-06,0.0,0 STARLINK-3524,1 51721U 22016H   23135.62369563  .00000998  00000-0  80808-4 0  9995,2 51721  53.2166 268.7878 0001102  92.6788 267.4330 15.08839004 69199,6917.883,95.438,540.511,538.986,0.0
51721.0,STARLINK-3524,PAYLOAD,2023-05-15 16:33:30,15.0884306,0.0001154,53.2172,268.4901,93.5669,266.5456,7.3743e-05,8.86e-06,0.0,0 STARLINK-3524,1 51721U 22016H   23135.68993350  .00000886  00000-0  73743-4 0  9994,2 51721  53.2172 268.4901 0001154  93.5669 266.5456 15.08843060 68088,6917.871,95.437,540.534,538.938,0.0
51721.0,STARLINK-3524,PAYLOAD,2023-05-16 13:13:31,15.08829178,0.000116,53.2175,264.6256,91.5775,268.535,0.00020394,2.958e-05,0.0,0 STARLINK-3524,1 51721U 22016H   23136.55106187  .00002958  00000-0  20394-3 0  9990,2 51721  53.2175 264.6256 0001160  91.5775 268.5350 15.08829178 69333,6917.913,95.438,540.581,538.976,0.0
51721.0,STARLINK-3524,PAYLOAD,2023-05-16 17:59:40,15.08842917,0.0001199,53.2177,263.7299,91.4839,268.6291,9.9569e-05,1.297e-05,0.0,0 STARLINK-3524,1 51721U 22016H   23136.74977442  .00001297  00000-0  99569-4 0  9997,2 51721  53.2177 263.7299 0001199  91.4839 268.6291 15.08842917 69368,6917.871,95.437,540.566,538.907,0.0
51721.0,STARLINK-3524,PAYLOAD,2023-05-17 14:39:41,15.08847066,0.0001151,53.2169,259.8626,99.3275,260.7847,7.2171e-05,8.61e-06,0.0,0 STARLINK-3524,1 51721U 22016H   23137.61089188  .00000861  00000-0  72171-4 0  9991,2 51721  53.2169 259.8626 0001151  99.3275 260.7847 15.08847066 68378,6917.859,95.437,540.52,538.928,0.0
51721.0,STARLINK-3524,PAYLOAD,2023-05-18 12:55:05,15.08848206,0.0001113,53.2168,255.7022,76.8259,283.2857,-6.624e-05,-1.342e-05,0.0,0 STARLINK-3524,1 51721U 22016H   23138.53825617 -.00001342  00000-0 -66240-4 0  9995,2 51721  53.2168 255.7022 0001113  76.8259 283.2857 15.08848206 69630,6917.855,95.437,540.49,538.95,0.0
51721.0,STARLINK-3524,PAYLOAD,2023-05-19 17:32:01,15.08846737,0.0001051,53.2173,250.3477,83.985,276.1262,6.5184e-05,7.5e-06,0.0,0 STARLINK-3524,1 51721U 22016H   23139.73057172  .00000750  00000-0  65184-4 0  9997,2 51721  53.2173 250.3477 0001051  83.9850 276.1262 15.08846737 69816,6917.86,95.437,540.452,538.998,0.0
51721.0,STARLINK-3524,PAYLOAD,2023-05-20 11:01:16,15.08792038,0.0001393,53.2166,247.0783,98.9791,261.1359,0.00073063,0.00011344,0.0,0 STARLINK-3524,1 51721U 22016H   23140.45922359  .00011344  00000-0  73063-3 0  9991,2 51721  53.2166 247.0783 0001393  98.9791 261.1359 15.08792038 69927,6918.027,95.441,540.856,538.928,0.0
51721.0,STARLINK-3524,PAYLOAD,2023-05-20 12:36:40,15.08794025,0.0001419,53.2162,246.7815,91.9526,268.1628,0.00076182,0.00011842,0.0,0 STARLINK-3524,1 51721U 22016H   23140.52546345  .00011842  00000-0  76182-3 0  9994,2 51721  53.2162 246.7815 0001419  91.9526 268.1628 15.08794025 68814,6918.021,95.44,540.868,538.904,0.0
51721.0,STARLINK-3524,PAYLOAD,2023-05-20 23:44:20,15.08843961,0.0001099,53.2174,244.6976,87.9766,272.1352,0.00010266,1.347e-05,0.0,0 STARLINK-3524,1 51721U 22016H   23140.98913139  .00001347  00000-0  10266-3 0  9993,2 51721  53.2174 244.6976 0001099  87.9766 272.1352 15.08843961 70004,6917.868,95.437,540.494,538.973,0.0
51721.0,STARLINK-3524,PAYLOAD,2023-05-21 09:16:40,15.08835365,0.000119,53.2165,242.914,105.5838,254.5286,-5.7298e-05,-1.199e-05,0.0,0 STARLINK-3524,1 51721U 22016H   23141.38658124 -.00001199  00000-0 -57298-4 0  9992,2 51721  53.2165 242.9140 0001190 105.5838 254.5286 15.08835365 70062,6917.895,95.438,540.583,538.936,0.0
51721.0,STARLINK-3524,PAYLOAD,2023-05-21 10:52:03,15.0883808,0.0001029,53.2175,242.6162,96.8513,263.2596,-3.064e-05,-7.75e-06,0.0,0 STARLINK-3524,1 51721U 22016H   23141.45281860 -.00000775  00000-0 -30640-4 0  9990,2 51721  53.2175 242.6162 0001029  96.8513 263.2596 15.08838080 68950,6917.886,95.438,540.463,539.039,0.0
51721.0,STARLINK-3524,PAYLOAD,2023-05-21 14:02:49,15.08841941,0.0001101,53.2163,242.0234,103.7017,256.4098,-8.345e-07,-3.01e-06,0.0,0 STARLINK-3524,1 51721U 22016H   23141.58529529 -.00000301  00000-0 -83450-6 0  9995,2 51721  53.2163 242.0234 0001101 103.7017 256.4098 15.08841941 70098,6917.874,95.437,540.501,538.978,0.0
51721.0,STARLINK-3524,PAYLOAD,2023-05-22 09:07:27,15.08831738,0.0001118,53.2166,238.4556,103.4346,256.6771,2.1188e-06,-2.54e-06,0.0,0 STARLINK-3524,1 51721U 22016H   23142.38018334 -.00000254  00000-0  21188-5 0  9996,2 51721  53.2166 238.4556 0001118 103.4346 256.6771 15.08831738 70214,6917.906,95.438,540.544,538.997,0.0
51721.0,STARLINK-3524,PAYLOAD,2023-05-22 10:42:50,15.08832414,0.0001054,53.2165,238.1587,108.8853,251.2254,6.3003e-06,-1.88e-06,0.0,0 STARLINK-3524,1 51721U 22016H   23142.44642269 -.00000188  00000-0  63003-5 0  9991,2 51721  53.2165 238.1587 0001054 108.8853 251.2254 15.08832414 69100,6917.904,95.438,540.498,539.039,0.0
51721.0,STARLINK-3524,PAYLOAD,2023-05-22 13:53:36,15.0883553,0.0001145,53.2164,237.5635,107.7564,252.3554,5.4943e-05,5.87e-06,0.0,0 STARLINK-3524,1 51721U 22016H   23142.57890002  .00000587  00000-0  54943-4 0  9999,2 51721  53.2164 237.5635 0001145 107.7564 252.3554 15.08835530 69123,6917.894,95.438,540.551,538.967,0.0
51721.0,STARLINK-3524,PAYLOAD,2023-05-23 12:09:01,15.08833147,0.00011,53.2163,233.4005,92.638,267.4738,1.5041e-05,-4.8e-07,0.0,0 STARLINK-3524,1 51721U 22016H   23143.50626703 -.00000048  00000-0  15041-4 0  9997,2 51721  53.2163 233.4005 0001100  92.6380 267.4738 15.08833147 70380,6917.901,95.438,540.527,539.005,0.0
51721.0,STARLINK-3524,PAYLOAD,2023-05-23 13:44:24,15.08835681,0.0001056,53.2166,233.1031,90.7754,269.3359,4.3735e-05,4.08e-06,0.0,0 STARLINK-3524,1 51721U 22016H   23143.57250487  .00000408  00000-0  43735-4 0  9996,2 51721  53.2166 233.1031 0001056  90.7754 269.3359 15.08835681 69274,6917.894,95.438,540.489,539.028,0.0
51721.0,STARLINK-3524,PAYLOAD,2023-05-23 23:16:43,15.08838171,0.0001038,53.2167,231.3191,89.6186,270.4925,3.5588e-05,2.79e-06,0.0,0 STARLINK-3524,1 51721U 22016H   23143.96994452  .00000279  00000-0  35588-4 0  9999,2 51721  53.2167 231.3191 0001038  89.6186 270.4925 15.08838171 70459,6917.886,95.438,540.469,539.033,0.0
